1 40378U 15003C   15343.13362510  .00005664  00000-0  26953-3 0  9997
2 40378  99.0979  49.0990 0151916  39.8575 321.3689 15.10017702 46936
